[{"OBJECT_NAME":"STARLINK-31670","OBJECT_ID":"2024-071G","EPOCH":"2026-03-09T03:57:07.843104","MEAN_MOTION":15.27554228,"ECCENTRICITY":4.127e-5,"INCLINATION":42.9994,"RA_OF_ASC_NODE":354.1263,"ARG_OF_PERICENTER":293.6576,"MEAN_ANOMALY":66.4232,"EPHEMERIS_TYPE":0,"CLASSIFICATION_TYPE":"U","NORAD_CAT_ID":59490,"ELEMENT_SET_NO":999,"REV_AT_EPOCH":10799,"BSTAR":5.7863457e-5,"MEAN_MOTION_DOT":1.33e-5,"MEAN_MOTION_DDOT":0},{"OBJECT_NAME":"SL-3 R\/B","OBJECT_ID":"1983-003B","EPOCH":"2026-03-09T21:31:00.897888","MEAN_MOTION":15.34640469,"ECCENTRICITY":0.00285789,"INCLINATION":81.155,"RA_OF_ASC_NODE":261.9078,"ARG_OF_PERICENTER":155.4571,"MEAN_ANOMALY":204.8036,"EPHEMERIS_TYPE":0,"CLASSIFICATION_TYPE":"U","NORAD_CAT_ID":13771,"ELEMENT_SET_NO":999,"REV_AT_EPOCH":35642,"BSTAR":0.00033440366,"MEAN_MOTION_DOT":0.00011405,"MEAN_MOTION_DDOT":0}]
